CCSDS_OMM_VERS = 2.0
CREATION_DATE  = 
ORIGINATOR     = 

OBJECT_NAME    = XRISM
OBJECT_ID      = 2023-137A
CENTER_NAME    = EARTH
REF_FRAME      = TEME
TIME_SYSTEM    = UTC
MEAN_ELEMENT_THEORY = SGP/SGP4

EPOCH          = 2026-05-23T10:34:36.105024
MEAN_MOTION    = 15.12214955
ECCENTRICITY   = .0007544
INCLINATION    = 31.0008
RA_OF_ASC_NODE = 159.8706
ARG_OF_PERICENTER = 74.7635
MEAN_ANOMALY   = 285.3837

EPHEMERIS_TYPE = 0
CLASSIFICATION_TYPE = U
NORAD_CAT_ID   = 57800
ELEMENT_SET_NO = 999
REV_AT_EPOCH   = 14911
BSTAR          = .14421E-3
MEAN_MOTION_DOT = .2651E-4
MEAN_MOTION_DDOT = 0

CCSDS_OMM_VERS = 2.0
CREATION_DATE  = 
ORIGINATOR     = 

OBJECT_NAME    = ACS3
OBJECT_ID      = 2024-077B
CENTER_NAME    = EARTH
REF_FRAME      = TEME
TIME_SYSTEM    = UTC
MEAN_ELEMENT_THEORY = SGP/SGP4

EPOCH          = 2026-05-21T04:57:20.227968
MEAN_MOTION    = 13.92598614
ECCENTRICITY   = .0023535
INCLINATION    = 97.1703
RA_OF_ASC_NODE = 66.0319
ARG_OF_PERICENTER = 14.9009
MEAN_ANOMALY   = 345.2845

EPHEMERIS_TYPE = 0
CLASSIFICATION_TYPE = U
NORAD_CAT_ID   = 59588
ELEMENT_SET_NO = 999
REV_AT_EPOCH   = 10428
BSTAR          = .16537915E-2
MEAN_MOTION_DOT = .211E-4
MEAN_MOTION_DDOT = 0

CCSDS_OMM_VERS = 2.0
CREATION_DATE  = 
ORIGINATOR     = 

OBJECT_NAME    = HTV-X1
OBJECT_ID      = 2025-241A
CENTER_NAME    = EARTH
REF_FRAME      = TEME
TIME_SYSTEM    = UTC
MEAN_ELEMENT_THEORY = SGP/SGP4

EPOCH          = 2026-05-22T12:42:09.493056
MEAN_MOTION    = 15.63756217
ECCENTRICITY   = .0007535
INCLINATION    = 51.6346
RA_OF_ASC_NODE = 70.1584
ARG_OF_PERICENTER = 87.0654
MEAN_ANOMALY   = 273.1203

EPHEMERIS_TYPE = 0
CLASSIFICATION_TYPE = U
NORAD_CAT_ID   = 66174
ELEMENT_SET_NO = 999
REV_AT_EPOCH   = 3233
BSTAR          = .2394E-3
MEAN_MOTION_DOT = .22374E-3
MEAN_MOTION_DDOT = 0

CCSDS_OMM_VERS = 2.0
CREATION_DATE  = 
ORIGINATOR     = 

OBJECT_NAME    = SZ-21 MODULE
OBJECT_ID      = 2025-246C
CENTER_NAME    = EARTH
REF_FRAME      = TEME
TIME_SYSTEM    = UTC
MEAN_ELEMENT_THEORY = SGP/SGP4

EPOCH          = 2026-05-23T05:41:50.350848
MEAN_MOTION    = 15.74129738
ECCENTRICITY   = .0004995
INCLINATION    = 41.4726
RA_OF_ASC_NODE = 102.4580
ARG_OF_PERICENTER = 206.3010
MEAN_ANOMALY   = 153.7581

EPHEMERIS_TYPE = 0
CLASSIFICATION_TYPE = U
NORAD_CAT_ID   = 66515
ELEMENT_SET_NO = 999
REV_AT_EPOCH   = 2980
BSTAR          = .24265E-3
MEAN_MOTION_DOT = .3564E-3
MEAN_MOTION_DDOT = 0

