XRISM                   
1 57800U 23137A   26143.44069566  .00002651  00000+0  14421-3 0  9990
2 57800  31.0008 159.8706 0007544  74.7635 285.3837 15.12214955149119
ACS3                    
1 59588U 24077B   26141.20648412  .00002110  00000+0  16538-2 0  9994
2 59588  97.1703  66.0319 0023535  14.9009 345.2845 13.92598614104284
HTV-X1                  
1 66174U 25241A   26142.52927654  .00022374  00000+0  23940-3 0  9991
2 66174  51.6346  70.1584 0007535  87.0654 273.1203 15.63756217 32338
SZ-21 MODULE            
1 66515U 25246C   26143.23738832  .00035640  00000+0  24265-3 0  9993
2 66515  41.4726 102.4580 0004995 206.3010 153.7581 15.74129738 29804
